NORAD_CAT_ID,OBJECT_NAME,OBJECT_TYPE,EPOCH,MEAN_MOTION,ECCENTRICITY,INCLINATION,RA_OF_ASC_NODE,ARG_OF_PERICENTER,MEAN_ANOMALY,BSTAR,MEAN_MOTION_DOT,MEAN_MOTION_DDOT,TLE_LINE0,TLE_LINE1,TLE_LINE2,SEMIMAJOR_AXIS,PERIOD,APOGEE,PERIGEE,DECAYED
53282.0,STARLINK-4164,PAYLOAD,2023-01-09 14:04:53,15.08852422,0.0003135,53.2187,329.5843,33.1361,326.9827,0.00029745,4.45e-05,0.0,0 STARLINK-4164,1 53282U 22086AS  23009.58672632  .00004450  00000-0  29745-3 0  9994,2 53282  53.2187 329.5843 0003135  33.1361 326.9827 15.08852422 26812,6917.842,95.437,541.876,537.539,0.0
53282.0,STARLINK-4164,PAYLOAD,2023-01-10 05:58:44,15.08845595,0.0002612,53.2187,326.6122,24.6593,335.4524,0.00018652,2.682e-05,0.0,0 STARLINK-4164,1 53282U 22086AS  23010.24912466  .00002682  00000-0  18652-3 0  9991,2 53282  53.2187 326.6122 0002612  24.6593 335.4524 15.08845595 26745,6917.863,95.437,541.535,537.9209999999998,0.0
53282.0,STARLINK-4164,PAYLOAD,2023-01-10 13:55:40,15.08840394,0.0002722,53.2188,325.125,26.7577,333.3555,0.00021338,3.109e-05,0.0,0 STARLINK-4164,1 53282U 22086AS  23010.58032652  .00003109  00000-0  21338-3 0  9998,2 53282  53.2188 325.1250 0002722  26.7577 333.3555 15.08840394 26966,6917.879,95.438,541.627,537.861,0.0
53282.0,STARLINK-4164,PAYLOAD,2023-01-10 20:17:12,15.0883769,0.0002772,53.2189,323.9356,27.532,332.5819,0.00019724,2.852e-05,0.0,0 STARLINK-4164,1 53282U 22086AS  23010.84528778  .00002852  00000-0  19724-3 0  9996,2 53282  53.2189 323.9356 0002772  27.5320 332.5819 15.08837690 26835,6917.887,95.438,541.67,537.835,0.0
53282.0,STARLINK-4164,PAYLOAD,2023-01-11 13:46:26,15.0885671,0.0002681,53.2194,320.6638,27.3541,332.7592,0.00019641,2.84e-05,0.0,0 STARLINK-4164,1 53282U 22086AS  23011.57391924  .00002840  00000-0  19641-3 0  9993,2 53282  53.2194 320.6638 0002681  27.3541 332.7592 15.08856710 26946,6917.8290000000015,95.436,541.549,537.84,0.0
53282.0,STARLINK-4164,PAYLOAD,2023-01-11 20:07:59,15.08853475,0.000268,53.2185,319.4751,29.9453,330.1692,0.00020223,2.933e-05,0.0,0 STARLINK-4164,1 53282U 22086AS  23011.83887914  .00002933  00000-0  20223-3 0  9992,2 53282  53.2185 319.4751 0002680  29.9453 330.1692 15.08853475 27159,6917.839,95.437,541.558,537.85,0.0
53282.0,STARLINK-4164,PAYLOAD,2023-01-12 02:29:31,15.08846166,0.000263,53.2183,318.2844,29.249,330.8649,0.00020758,3.017e-05,0.0,0 STARLINK-4164,1 53282U 22086AS  23012.10384185  .00003017  00000-0  20758-3 0  9992,2 53282  53.2183 318.2844 0002630  29.2490 330.8649 15.08846166 27020,6917.861999999999,95.437,541.5459999999998,537.9069999999998,0.0
53282.0,STARLINK-4164,PAYLOAD,2023-01-12 19:58:48,15.08819995,0.000247,53.22,315.0156,31.9116,328.2025,-6.7865e-05,-1.368e-05,0.0,0 STARLINK-4164,1 53282U 22086AS  23012.83250541 -.00001368  00000-0 -67865-4 0  9990,2 53282  53.2200 315.0156 0002470  31.9116 328.2025 15.08819995 27139,6917.941999999999,95.439,541.515,538.0980000000002,0.0
53282.0,STARLINK-4164,PAYLOAD,2023-01-13 13:28:02,15.08834361,0.0002218999999999,53.2186,311.7431,37.9636,322.1512,2.1867e-05,6e-07,0.0,0 STARLINK-4164,1 53282U 22086AS  23013.56114040  .00000060  00000-0  21867-4 0  9992,2 53282  53.2186 311.7431 0002219  37.9636 322.1512 15.08834361 27245,6917.898,95.438,541.298,538.2280000000001,0.0
53282.0,STARLINK-4164,PAYLOAD,2023-01-14 05:21:52,15.08865687,0.0002351,53.2171,308.7681,44.6893,315.4289,0.00049386,7.586e-05,0.0,0 STARLINK-4164,1 53282U 22086AS  23014.22352111  .00007586  00000-0  49386-3 0  9994,2 53282  53.2171 308.7681 0002351  44.6893 315.4289 15.08865687 27341,6917.802,95.436,541.293,538.04,0.0
53282.0,STARLINK-4164,PAYLOAD,2023-01-14 19:40:22,15.08816722,0.0001999,53.2178,306.0966,43.9988,316.1163,5.2095e-05,5.41e-06,0.0,0 STARLINK-4164,1 53282U 22086AS  23014.81970903  .00000541  00000-0  52095-4 0  9990,2 53282  53.2178 306.0966 0001999  43.9988 316.1163 15.08816722 27434,6917.951999999999,95.439,541.1990000000001,538.434,0.0
53282.0,STARLINK-4164,PAYLOAD,2023-01-15 05:12:40,15.08837509,0.0001946,53.2178,304.309,65.6918,294.4277,0.00010038,1.31e-05,0.0,0 STARLINK-4164,1 53282U 22086AS  23015.21714110  .00001310  00000-0  10038-3 0  9996,2 53282  53.2178 304.3090 0001946  65.6918 294.4277 15.08837509 27495,6917.888000000001,95.438,541.099,538.4069999999999,0.0
53282.0,STARLINK-4164,PAYLOAD,2023-01-15 11:34:13,15.08838566,0.0001911999999999,53.2166,303.1201,70.28699999999999,289.8329,3.6541e-05,2.93e-06,0.0,0 STARLINK-4164,1 53282U 22086AS  23015.48210028  .00000293  00000-0  36541-4 0  9991,2 53282  53.2166 303.1201 0001912  70.2870 289.8329 15.08838566 27709,6917.885,95.438,541.072,538.427,0.0
53282.0,STARLINK-4164,PAYLOAD,2023-01-15 19:31:08,15.08839078,0.0001404,53.2164,301.6327,69.8071,290.3072,0.00035629,5.387e-05,0.0,0 STARLINK-4164,1 53282U 22086AS  23015.81329855  .00005387  00000-0  35629-3 0  9991,2 53282  53.2164 301.6327 0001404  69.8071 290.3072 15.08839078 27758,6917.883000000001,95.438,540.719,538.7769999999999,0.0
53282.0,STARLINK-4164,PAYLOAD,2023-01-16 03:28:03,15.08875635,0.0001809,53.2164,300.1459,75.4185,284.7008,0.0015939,0.00025195,0.0,0 STARLINK-4164,1 53282U 22086AS  23016.14448847  .00025195  00000-0  15939-2 0  9991,2 53282  53.2164 300.1459 0001809  75.4185 284.7008 15.08875635 27638,6917.771,95.435,540.888,538.385,0.0
53282.0,STARLINK-4164,PAYLOAD,2023-01-16 11:25:00,15.08847219,0.0002531,53.2193,298.6592,84.6309,275.4972,-2.4479e-05,-6.78e-06,0.0,0 STARLINK-4164,1 53282U 22086AS  23016.47569533 -.00000678  00000-0 -24479-4 0  9995,2 53282  53.2193 298.6592 0002531  84.6309 275.4972 15.08847219 27681,6917.858,95.437,541.474,537.972,0.0
53282.0,STARLINK-4164,PAYLOAD,2023-01-16 20:57:18,15.08842632,0.0002156,53.218,296.8804,105.878,254.245,-4.9477e-05,-1.076e-05,0.0,0 STARLINK-4164,1 53282U 22086AS  23016.87313460 -.00001076  00000-0 -49477-4 0  9993,2 53282  53.2180 296.8804 0002156 105.8780 254.2450 15.08842632 27911,6917.871999999999,95.437,541.229,538.246,0.0
53282.0,STARLINK-4164,PAYLOAD,2023-01-17 03:18:51,15.08846162,0.0001445,53.2152,295.686,103.2818,256.8335,0.00010493,1.383e-05,0.0,0 STARLINK-4164,1 53282U 22086AS  23017.13809257  .00001383  00000-0  10493-3 0  9991,2 53282  53.2152 295.6860 0001445 103.2818 256.8335 15.08846162 27959,6917.861999999999,95.437,540.726,538.727,0.0
53282.0,STARLINK-4164,PAYLOAD,2023-01-17 23:58:53,15.08822274,0.0001635,53.2161,291.8221,111.3461,248.7705,6.2955e-05,7.14e-06,0.0,0 STARLINK-4164,1 53282U 22086AS  23017.99922768  .00000714  00000-0  62955-4 0  9996,2 53282  53.2161 291.8221 0001635 111.3461 248.7705 15.08822274 27918,6917.935,95.439,540.931,538.668,0.0
53282.0,STARLINK-4164,PAYLOAD,2023-01-18 11:06:35,15.08839137,0.0001385999999999,53.216,289.7385,98.4944,261.6206,0.00058809,9.084e-05,0.0,0 STARLINK-4164,1 53282U 22086AS  23018.46290945  .00009084  00000-0  58809-3 0  9995,2 53282  53.2160 289.7385 0001386  98.4944 261.6206 15.08839137 28151,6917.883000000001,95.438,540.707,538.789,0.0
53282.0,STARLINK-4164,PAYLOAD,2023-01-19 03:00:25,15.0887797,0.0001320999999999,53.2153,286.7643,91.1352,268.9792,0.0015902999999999,0.00025139,0.0,0 STARLINK-4164,1 53282U 22086AS  23019.12530046  .00025139  00000-0  15903-2 0  9994,2 53282  53.2153 286.7643 0001321  91.1352 268.9792 15.08877970 28088,6917.764,95.435,540.543,538.715,0.0
53282.0,STARLINK-4164,PAYLOAD,2023-01-19 10:57:22,15.08833367,0.0002513,53.2157,285.2793,72.6407,287.486,0.00013317,1.831e-05,0.0,0 STARLINK-4164,1 53282U 22086AS  23019.45651203  .00001831  00000-0  13317-3 0  9990,2 53282  53.2157 285.2793 0002513  72.6407 287.4860 15.08833367 28131,6917.901,95.438,541.504,538.0269999999999,0.0
53282.0,STARLINK-4164,PAYLOAD,2023-01-20 10:48:10,15.08837529,0.000157,53.2166,280.8175,73.1548,286.9616,0.0011662,0.0001831999999999,0.0,0 STARLINK-4164,1 53282U 22086AS  23020.45012085  .00018320  00000-0  11662-2 0  9992,2 53282  53.2166 280.8175 0001570  73.1548 286.9616 15.08837529 28452,6917.888000000001,95.438,540.839,538.6669999999999,0.0
53282.0,STARLINK-4164,PAYLOAD,2023-01-20 21:55:52,15.08861373,0.0001595,53.2158,278.738,67.4024,292.7137,0.0016059,0.00025377,0.0,0 STARLINK-4164,1 53282U 22086AS  23020.91379843  .00025377  00000-0  16059-2 0  9996,2 53282  53.2158 278.7380 0001595  67.4024 292.7137 15.08861373 28355,6917.815,95.436,540.783,538.577,0.0
53282.0,STARLINK-4164,PAYLOAD,2023-01-21 10:38:56,15.08867699,0.0001372,53.2158,276.3584,75.8135,284.301,0.0011362,0.00017855,0.0,0 STARLINK-4164,1 53282U 22086AS  23021.44371149  .00017855  00000-0  11362-2 0  9990,2 53282  53.2158 276.3584 0001372  75.8135 284.3010 15.08867699 28437,6917.795999999999,95.436,540.61,538.712,0.0
53282.0,STARLINK-4164,PAYLOAD,2023-01-22 02:32:47,15.08867925,0.0001773,53.2149,273.3853,86.6637,273.4558,0.0013647,0.00021515,0.0,0 STARLINK-4164,1 53282U 22086AS  23022.10610631  .00021515  00000-0  13647-2 0  9992,2 53282  53.2149 273.3853 0001773  86.6637 273.4558 15.08867925 28534,6917.795,95.436,540.887,538.434,0.0
53282.0,STARLINK-4164,PAYLOAD,2023-01-22 16:51:16,15.08833264,0.0001641999999999,53.2157,270.7067,90.5858,269.5323,0.00049709,7.631e-05,0.0,0 STARLINK-4164,1 53282U 22086AS  23022.70227203  .00007631  00000-0  49709-3 0  9999,2 53282  53.2157 270.7067 0001642  90.5858 269.5323 15.08833264 28620,6917.901,95.438,540.9019999999999,538.63,0.0
53282.0,STARLINK-4164,PAYLOAD,2023-01-23 00:48:12,15.08822548,0.000125,53.2166,269.2199,109.0141,251.0987,0.00067561,0.00010476,0.0,0 STARLINK-4164,1 53282U 22086AS  23023.03347844  .00010476  00000-0  67561-3 0  9997,2 53282  53.2166 269.2199 0001250 109.0141 251.0987 15.08822548 28675,6917.934,95.439,540.663,538.934,0.0
53282.0,STARLINK-4164,PAYLOAD,2023-01-23 21:28:13,15.08856391,0.0001188,53.2151,265.3549,108.0989,252.0133,0.0011369,0.0001786,0.0,0 STARLINK-4164,1 53282U 22086AS  23023.89459675  .00017860  00000-0  11369-2 0  9995,2 53282  53.2151 265.3549 0001188 108.0989 252.0133 15.08856391 28806,6917.83,95.437,540.5169999999999,538.873,0.0
